NORAD_CAT_ID,OBJECT_NAME,OBJECT_TYPE,EPOCH,MEAN_MOTION,ECCENTRICITY,INCLINATION,RA_OF_ASC_NODE,ARG_OF_PERICENTER,MEAN_ANOMALY,BSTAR,MEAN_MOTION_DOT,MEAN_MOTION_DDOT,TLE_LINE0,TLE_LINE1,TLE_LINE2,SEMIMAJOR_AXIS,PERIOD,APOGEE,PERIGEE,DECAYED
54095.0,STARLINK-5193,PAYLOAD,2023-03-11 02:31:34,15.08880458,0.0001027,53.2147,207.5693,286.0785,74.0094,0.0011271,0.00017715,0.0,0 STARLINK-5193,1 54095U 22136AW  23070.10526340  .00017715  00000-0  11271-2 0  9995,2 54095  53.2147 207.5693 0001027 286.0785  74.0094 15.08880458 22213,6917.757,95.435,540.332,538.911,0.0
54095.0,STARLINK-5193,PAYLOAD,2023-03-11 08:53:07,15.08854933,0.0001434,53.2174,206.3821,69.1481,290.9665,0.00031066,4.662e-05,0.0,0 STARLINK-5193,1 54095U 22136AW  23070.37023139  .00004662  00000-0  31066-3 0  9994,2 54095  53.2174 206.3821 0001434  69.1481 290.9665 15.08854933 22254,6917.835,95.437,540.692,538.708,0.0
54095.0,STARLINK-5193,PAYLOAD,2023-03-11 15:14:40,15.08821752,5.23e-05,53.2179,205.193,76.1583,283.9468,-0.00084496,-0.00013703,0.0,0 STARLINK-5193,1 54095U 22136AW  23070.63519247 -.00013703  00000-0 -84496-3 0  9996,2 54095  53.2179 205.1930 0000523  76.1583 283.9468 15.08821752 21824,6917.936,95.439,540.163,539.439,0.0
54095.0,STARLINK-5193,PAYLOAD,2023-03-12 08:43:56,15.08819018,7.36e-05,53.2178,201.9218,77.6649,282.4426,0.00036877,5.583e-05,0.0,0 STARLINK-5193,1 54095U 22136AW  23071.36384706  .00005583  00000-0  36877-3 0  9992,2 54095  53.2178 201.9218 0000736  77.6649 282.4426 15.08819018 22406,6917.945,95.439,540.319,539.3,0.0
54095.0,STARLINK-5193,PAYLOAD,2023-03-12 18:16:15,15.08850932,0.0001185,53.217,200.1386,97.0999,263.0128,0.0018235,0.00028861,0.0,0 STARLINK-5193,1 54095U 22136AW  23071.76128741  .00028861  00000-0  18235-2 0  9992,2 54095  53.2170 200.1386 0001185  97.0999 263.0128 15.08850932 22468,6917.847,95.437,540.532,538.892,0.0
54095.0,STARLINK-5193,PAYLOAD,2023-03-13 08:34:43,15.08844628,8.01e-05,53.2181,197.4634,85.5162,274.5922,0.0010364,0.00016247,0.0,0 STARLINK-5193,1 54095U 22136AW  23072.35745110  .00016247  00000-0  10364-2 0  9993,2 54095  53.2181 197.4634 0000801  85.5162 274.5922 15.08844628 22556,6917.866,95.437,540.285,539.177,0.0
54095.0,STARLINK-5193,PAYLOAD,2023-03-14 14:47:03,15.08858336,0.0001026,53.2197,191.814,102.1074,258.0034,0.00080893,0.00012616,0.0,0 STARLINK-5193,1 54095U 22136AW  23073.61600795  .00012616  00000-0  80893-3 0  9993,2 54095  53.2197 191.8140 0001026 102.1074 258.0034 15.08858336 22744,6917.824,95.436,540.399,538.98,0.0
54095.0,STARLINK-5193,PAYLOAD,2023-03-14 17:57:49,15.08864822,0.0001317,53.218,191.217,97.4241,262.6901,0.00089835,0.00014048,0.0,0 STARLINK-5193,1 54095U 22136AW  23073.74848520  .00014048  00000-0  89835-3 0  9993,2 54095  53.2180 191.2170 0001317  97.4241 262.6901 15.08864822 22299,6917.805,95.436,540.581,538.758,0.0
54095.0,STARLINK-5193,PAYLOAD,2023-03-15 11:27:03,15.08860788,0.0001665,53.2169,187.9462,100.0903,260.0277,0.00040778,6.211e-05,0.0,0 STARLINK-5193,1 54095U 22136AW  23074.47711950  .00006211  00000-0  40778-3 0  9996,2 54095  53.2169 187.9462 0001665 100.0903 260.0277 15.08860788 22873,6917.817,95.436,540.834,538.53,0.0
54095.0,STARLINK-5193,PAYLOAD,2023-03-15 16:13:11,15.08878327,0.0001416,53.2177,187.0522,99.8056,260.3096,0.00087035,0.00013605,0.0,0 STARLINK-5193,1 54095U 22136AW  23074.67583294  .00013605  00000-0  87035-3 0  9998,2 54095  53.2177 187.0522 0001416  99.8056 260.3096 15.08878327 22902,6917.763,95.435,540.608,538.649,0.0
54095.0,STARLINK-5193,PAYLOAD,2023-03-16 00:10:07,15.0884378,0.0001363,53.2165,185.5683,103.4986,256.6159,-0.00020995,-3.628e-05,0.0,0 STARLINK-5193,1 54095U 22136AW  23075.00703691 -.00003628  00000-0 -20995-3 0  9999,2 54095  53.2165 185.5683 0001363 103.4986 256.6159 15.08843780 22953,6917.869,95.437,540.677,538.791,0.0
54095.0,STARLINK-5193,PAYLOAD,2023-03-16 11:17:50,15.08822433,0.0001748,53.2183,183.4887,123.1942,236.9218,-0.000579,-9.487e-05,0.0,0 STARLINK-5193,1 54095U 22136AW  23075.47072397 -.00009487  00000-0 -57900-3 0  9997,2 54095  53.2183 183.4887 0001748 123.1942 236.9218 15.08822433 23022,6917.934,95.439,541.008,538.59,0.0
54095.0,STARLINK-5193,PAYLOAD,2023-03-16 17:39:23,15.08826099,0.0001807,53.2164,182.2977,103.0304,257.089,0.0002819,4.2e-05,0.0,0 STARLINK-5193,1 54095U 22136AW  23075.73568986  .00004200  00000-0  28190-3 0  9995,2 54095  53.2164 182.2977 0001807 103.0304 257.0890 15.08826099 22596,6917.923,95.438,541.038,538.538,0.0
54095.0,STARLINK-5193,PAYLOAD,2023-03-17 11:08:39,15.0881692,0.0002033,53.2157,179.0246,124.3777,235.7407,0.00031245,4.685e-05,0.0,0 STARLINK-5193,1 54095U 22136AW  23076.46434316  .00004685  00000-0  31245-3 0  9997,2 54095  53.2157 179.0246 0002033 124.3777 235.7407 15.08816920 22705,6917.951,95.439,541.222,538.41,0.0
54095.0,STARLINK-5193,PAYLOAD,2023-03-18 14:10:11,15.08879755,0.0001021,53.2167,173.9721,93.7214,266.3895,0.0016079,0.00025422,0.0,0 STARLINK-5193,1 54095U 22136AW  23077.59041574  .00025422  00000-0  16079-2 0  9991,2 54095  53.2167 173.9721 0001021  93.7214 266.3895 15.08879755 23345,6917.759,95.435,540.33,538.918,0.0
54095.0,STARLINK-5193,PAYLOAD,2023-03-18 15:45:34,15.08884489,0.0001032,53.2166,173.6744,93.8529,266.2581,0.0016423,0.00025978,0.0,0 STARLINK-5193,1 54095U 22136AW  23077.65665355  .00025978  00000-0  16423-2 0  9996,2 54095  53.2166 173.6744 0001032  93.8529 266.2581 15.08884489 22887,6917.744,95.435,540.323,538.895,0.0
54095.0,STARLINK-5193,PAYLOAD,2023-03-19 06:04:03,15.08868977,0.0002216,53.217,170.9989,95.2325,264.892,0.0010792,0.00016943,0.0,0 STARLINK-5193,1 54095U 22136AW  23078.25281253  .00016943  00000-0  10792-2 0  9999,2 54095  53.2170 170.9989 0002216  95.2325 264.8920 15.08868977 23446,6917.792,95.436,541.19,538.124,0.0
54095.0,STARLINK-5193,PAYLOAD,2023-03-19 12:25:35,15.08865069,0.0001246,53.2171,169.8097,107.4923,252.6206,0.0016348,0.00025843,0.0,0 STARLINK-5193,1 54095U 22136AW  23078.51776839  .00025843  00000-0  16348-2 0  9999,2 54095  53.2171 169.8097 0001246 107.4923 252.6206 15.08865069 23010,6917.804,95.436,540.531,538.807,0.0
54095.0,STARLINK-5193,PAYLOAD,2023-03-19 15:36:21,15.08870019,0.0001257,53.2171,169.2149,106.4296,253.6834,0.0019418,0.00030776,0.0,0 STARLINK-5193,1 54095U 22136AW  23078.65024627  .00030776  00000-0  19418-2 0  9997,2 54095  53.2171 169.2149 0001257 106.4296 253.6834 15.08870019 23037,6917.789,95.436,540.523,538.784,0.0
54095.0,STARLINK-5193,PAYLOAD,2023-03-20 05:54:49,15.08861197,0.0002156,53.2175,166.5385,87.4875,272.6364,0.0016166,0.00025549,0.0,0 STARLINK-5193,1 54095U 22136AW  23079.24641070  .00025549  00000-0  16166-2 0  9999,2 54095  53.2175 166.5385 0002156  87.4875 272.6364 15.08861197 23590,6917.816,95.436,541.172,538.189,0.0
54095.0,STARLINK-5193,PAYLOAD,2023-03-20 12:16:22,15.08844637,0.0001421,53.2188,165.3496,91.9263,268.1892,0.00096835,0.00015159,0.0,0 STARLINK-5193,1 54095U 22136AW  23079.51137058  .00015159  00000-0  96835-3 0  9993,2 54095  53.2188 165.3496 0001421  91.9263 268.1892 15.08844637 23630,6917.866,95.437,540.714,538.748,0.0
54095.0,STARLINK-5193,PAYLOAD,2023-03-21 05:45:37,15.08850189,0.0001222,53.2171,162.0775,85.1315,274.9817,0.0010033,0.0001572,0.0,0 STARLINK-5193,1 54095U 22136AW  23080.24001289  .00015720  00000-0  10033-2 0  9990,2 54095  53.2171 162.0775 0001222  85.1315 274.9817 15.08850189 23741,6917.849,95.437,540.56,538.869,0.0
54095.0,STARLINK-5193,PAYLOAD,2023-03-21 12:07:09,15.08844478,0.0001344,53.2186,160.8873,92.9403,267.1743,0.000368,5.574e-05,0.0,0 STARLINK-5193,1 54095U 22136AW  23080.50497094  .00005574  00000-0  36800-3 0  9999,2 54095  53.2186 160.8873 0001344  92.9403 267.1743 15.08844478 23310,6917.867,95.437,540.661,538.802,0.0
54095.0,STARLINK-5193,PAYLOAD,2023-03-22 05:36:24,15.08839646,0.0001733,53.2183,157.6179,116.1804,243.9367,0.00014484,2.018e-05,0.0,0 STARLINK-5193,1 54095U 22136AW  23081.23361281  .00002018  00000-0  14484-3 0  9992,2 54095  53.2183 157.6179 0001733 116.1804 243.9367 15.08839646 23894,6917.881,95.438,540.945,538.548,0.0
54095.0,STARLINK-5193,PAYLOAD,2023-03-22 11:57:56,15.08842202,0.0001163,53.2179,156.4282,106.2391,253.8729,0.00020323,2.948e-05,0.0,0 STARLINK-5193,1 54095U 22136AW  23081.49857270  .00002948  00000-0  20323-3 0  9999,2 54095  53.2179 156.4282 0001163 106.2391 253.8729 15.08842202 23466,6917.874,95.437,540.543,538.934,0.0
54095.0,STARLINK-5193,PAYLOAD,2023-03-23 11:48:42,15.08865002,0.0001178,53.2175,151.9669,115.8514,244.2599,0.00070814,0.00011008,0.0,0 STARLINK-5193,1 54095U 22136AW  23082.49216377  .00011008  00000-0  70814-3 0  9994,2 54095  53.2175 151.9669 0001178 115.8514 244.2599 15.08865002 24081,6917.804,95.436,540.484,538.854,0.0
54095.0,STARLINK-5193,PAYLOAD,2023-03-24 11:39:29,15.08879153,0.0001458,53.2165,147.5074,57.7708,302.3425,0.0010596,0.00016634,0.0,0 STARLINK-5193,1 54095U 22136AW  23083.48575272  .00016634  00000-0  10596-2 0  9996,2 54095  53.2165 147.5074 0001458  57.7708 302.3425 15.08879153 24234,6917.761,95.435,540.634,538.617,0.0
54095.0,STARLINK-5193,PAYLOAD,2023-03-24 16:25:37,15.089044,0.0001345,53.2163,146.6119,142.7042,217.4044,0.0018689,0.00029633,0.0,0 STARLINK-5193,1 54095U 22136AW  23083.68445844  .00029633  00000-0  18689-2 0  9993,2 54095  53.2163 146.6119 0001345 142.7042 217.4044 15.08904400 24263,6917.684,95.433,540.479,538.618,0.0
54095.0,STARLINK-5193,PAYLOAD,2023-03-25 05:08:44,15.08788358,0.0001179,53.2161,144.2386,101.1336,258.9788,-0.0011666,-0.0001878,0.0,0 STARLINK-5193,1 54095U 22136AW  23084.21440624 -.00018780  00000-0 -11666-2 0  9995,2 54095  53.2161 144.2386 0001179 101.1336 258.9788 15.08788358 24347,6918.038,95.441,540.719,539.088,0.0
54095.0,STARLINK-5193,PAYLOAD,2023-03-25 21:02:37,15.0881401,0.0001419,53.216,141.2641,98.2877,261.8276,0.0018194,0.00028766,0.0,0 STARLINK-5193,1 54095U 22136AW  23084.87682778  .00028766  00000-0  18194-2 0  9991,2 54095  53.2160 141.2641 0001419  98.2877 261.8276 15.08814010 24441,6917.96,95.439,540.806,538.843,0.0
